[{"OBJECT_NAME":"STARLINK-11607 [DTC]","OBJECT_ID":"2025-043J","EPOCH":"2026-03-09T13:16:50.070720","MEAN_MOTION":15.71028221,"ECCENTRICITY":0.00033146,"INCLINATION":43.0002,"RA_OF_ASC_NODE":251.2715,"ARG_OF_PERICENTER":260.0072,"MEAN_ANOMALY":100.0422,"EPHEMERIS_TYPE":0,"CLASSIFICATION_TYPE":"U","NORAD_CAT_ID":63140,"ELEMENT_SET_NO":999,"REV_AT_EPOCH":5945,"BSTAR":0.0026782249,"MEAN_MOTION_DOT":0.00361436,"MEAN_MOTION_DDOT":0},{"OBJECT_NAME":"UNKNOWN","OBJECT_ID":"","EPOCH":"2026-03-09T00:48:08.930880","MEAN_MOTION":15.7514874,"ECCENTRICITY":0.0019769,"INCLINATION":97.6379,"RA_OF_ASC_NODE":94.4029,"ARG_OF_PERICENTER":114.9652,"MEAN_ANOMALY":245.3669,"EPHEMERIS_TYPE":0,"CLASSIFICATION_TYPE":"U","NORAD_CAT_ID":89161,"ELEMENT_SET_NO":999,"REV_AT_EPOCH":56197,"BSTAR":0.0042433,"MEAN_MOTION_DOT":0.00691245,"MEAN_MOTION_DDOT":0}]
